[{"OBJECT_NAME":"ZHUHAI-1 03B","OBJECT_ID":"2019-060C","EPOCH":"2026-03-09T23:17:29.992992","MEAN_MOTION":15.48049208,"ECCENTRICITY":0.00085373,"INCLINATION":97.5406,"RA_OF_ASC_NODE":221.8965,"ARG_OF_PERICENTER":320.2572,"MEAN_ANOMALY":39.8051,"EPHEMERIS_TYPE":0,"CLASSIFICATION_TYPE":"U","NORAD_CAT_ID":44536,"ELEMENT_SET_NO":999,"REV_AT_EPOCH":36094,"BSTAR":0.00073406369,"MEAN_MOTION_DOT":0.00038517,"MEAN_MOTION_DDOT":0},{"OBJECT_NAME":"FENGYUN 1C DEB","OBJECT_ID":"1999-025AMU","EPOCH":"2026-03-09T13:46:16.276800","MEAN_MOTION":15.41895871,"ECCENTRICITY":0.0043781,"INCLINATION":98.2926,"RA_OF_ASC_NODE":203.1751,"ARG_OF_PERICENTER":231.7233,"MEAN_ANOMALY":128.007,"EPHEMERIS_TYPE":0,"CLASSIFICATION_TYPE":"U","NORAD_CAT_ID":30613,"ELEMENT_SET_NO":999,"REV_AT_EPOCH":717,"BSTAR":0.0052699,"MEAN_MOTION_DOT":0.00238104,"MEAN_MOTION_DDOT":0}]
